H1 CPF  1  MCC 2022  6 16 14  6671 larets
H2  0304206 5557    27944 2022 06 15 23 45 00 2022 06 20 23 57 00   180 1 1  0 0 0
H9
10 0 59746 68220.000000 0      2166827.688     -6716288.135       355029.914
10 0 59746 68400.000000 0      1876673.190     -6741413.374      -979746.367
10 0 59746 68580.000000 0      1520936.389     -6512880.327     -2278632.783
10 0 59746 68760.000000 0      1119146.298     -6037628.613     -3494079.020
10 0 59746 68940.000000 0       692196.438     -5332144.623     -4581659.999
10 0 59746 69120.000000 0       261328.946     -4421833.472     -5501709.793
10 0 59746 69300.000000 0      -152867.466     -3340042.386     -6220751.917
10 0 59746 69480.000000 0      -531396.241     -2126785.441     -6712679.412
10 0 59746 69660.000000 0      -857687.962      -827230.564     -6959653.569
10 0 59746 69840.000000 0     -1118299.815       509989.425     -6952708.104
10 0 59746 70020.000000 0     -1303455.816      1834584.327     -6692050.131
10 0 59746 70200.000000 0     -1407411.349      3096475.020     -6187058.320
10 0 59746 70380.000000 0     -1428631.589      4247673.600     -5455981.294
10 0 59746 70560.000000 0     -1369777.813      5244119.638     -4525330.798
10 0 59746 70740.000000 0     -1237501.129      6047405.993     -3428972.401
10 0 59746 70920.000000 0     -1042048.298      6626318.604     -2206928.040
10 0 59746 71100.000000 0      -796694.099      6958119.181      -903927.156
10 0 59746 71280.000000 0      -517025.791      7029503.270       432248.141
10 0 59746 71460.000000 0      -220112.721      6837179.104      1752559.039
10 0 59746 71640.000000 0        76393.119      6388021.139      3008571.746
10 0 59746 71820.000000 0       355174.239      5698788.310      4154282.392
10 0 59746 72000.000000 0       600136.258      4795444.291      5147829.019
10 0 59746 72180.000000 0       797222.856      3712101.092      5953026.460
10 0 59746 72360.000000 0       935117.902      2489659.436      6540646.555
10 0 59746 72540.000000 0      1005802.793      1174218.534      6889430.268
10 0 59746 72720.000000 0      1004947.752      -184684.485      6986803.530
10 0 59746 72900.000000 0       932125.801     -1535933.766      6829290.131
10 0 59746 73080.000000 0       790841.484     -2828739.957      6422624.782
10 0 59746 73260.000000 0       588372.951     -4014536.413      5781557.126
10 0 59746 73440.000000 0       335433.557     -5048799.404      4929345.892
10 0 59746 73620.000000 0        45669.233     -5892733.419      3896965.085
10 0 59746 73800.000000 0      -264996.285     -6514774.959      2722027.251
10 0 59746 73980.000000 0      -579144.366     -6891836.743      1447438.291
10 0 59746 74160.000000 0      -878734.337     -7010228.555       119832.262
10 0 59746 74340.000000 0     -1146025.596     -6866206.610     -1212163.942
10 0 59746 74520.000000 0     -1364496.595     -6466104.056     -2499758.157
10 0 59746 74700.000000 0     -1519712.746     -5826043.814     -3695823.542
10 0 59746 74880.000000 0     -1600100.706     -4971249.375     -4756656.657
10 0 59746 75060.000000 0     -1597586.940     -3934989.774     -5643581.652
10 0 59746 75240.000000 0     -1508070.902     -2757225.906     -6324338.581
10 0 59746 75420.000000 0     -1331713.392     -1483024.868     -6774217.490
10 0 59746 75600.000000 0     -1073030.391      -160811.711     -6976905.819
10 0 59746 75780.000000 0      -740791.694      1159469.097     -6925037.128
10 0 59746 75960.000000 0      -347725.470      2428220.505     -6620439.118
10 0 59746 76140.000000 0        89959.405      3598035.277     -6074081.641
10 0 59746 76320.000000 0       553223.942      4625465.624     -5305722.008
10 0 59746 76500.000000 0      1021001.865      5472658.340     -4343242.254
10 0 59746 76680.000000 0      1471125.356      6108798.627     -3221688.765
10 0 59746 76860.000000 0      1881338.295      6511297.536     -1982028.818
10 0 59746 77040.000000 0      2230350.855      6666664.878      -669659.488
10 0 59746 77220.000000 0      2498883.173      6571013.932       667282.776
10 0 59746 77400.000000 0      2670640.157      6230161.823      1979736.242
10 0 59746 77580.000000 0      2733165.469      5659322.286      3219566.711
10 0 59746 77760.000000 0      2678531.468      4882409.344      4341377.906
10 0 59746 77940.000000 0      2503828.488      3930988.694      5304202.339
10 0 59746 78120.000000 0      2211424.192      2842929.299      6072993.325
10 0 59746 78300.000000 0      1808994.630      1660844.861      6619860.391
10 0 59746 78480.000000 0      1309328.646       430394.646      6925031.562
10 0 59746 78660.000000 0       729912.845      -801487.210      6977513.691
10 0 59746 78840.000000 0        92316.595     -1988367.668      6775455.293
10 0 59746 79020.000000 0      -578607.833     -3086050.271      6326203.265
10 0 59746 79200.000000 0     -1255682.129     -4054209.879      5646046.822
10 0 59746 79380.000000 0     -1910480.536     -4857871.960      4759664.085
10 0 59746 79560.000000 0     -2514507.709     -5468703.119      3699285.000
10 0 59746 79740.000000 0     -3040431.334     -5866060.879      2503561.612
10 0 59746 79920.000000 0     -3463306.541     -6037739.889      1216176.242
10 0 59746 80100.000000 0     -3761735.098     -5980381.547      -115759.017
10 0 59746 80280.000000 0     -3918901.968     -5699522.625     -1443454.917
10 0 59746 80460.000000 0     -3923432.717     -5209272.123     -2718278.065
10 0 59746 80640.000000 0     -3770023.132     -4531626.882     -3893579.135
10 0 59746 80820.000000 0     -3459806.556     -3695466.466     -4926428.450
10 0 59746 81000.000000 0     -3000445.883     -2735289.046     -5779185.069
10 0 59746 81180.000000 0     -2405952.488     -1689754.527     -6420844.030
10 0 59746 81360.000000 0     -1696243.205      -600105.189     -6828122.115
10 0 59746 81540.000000 0      -896455.798       491468.335     -6986251.796
10 0 59746 81720.000000 0       -36056.531      1543448.003     -6889474.816
10 0 59746 81900.000000 0       852233.624      2516547.683     -6541239.570
10 0 59746 82080.000000 0      1733666.985      3375169.292     -5954099.570
10 0 59746 82260.000000 0      2572817.570      4088711.883     -5149301.237
10 0 59746 82440.000000 0      3335000.657      4632685.765     -4156067.415
10 0 59746 82620.000000 0      3987714.659      4989595.298     -3010585.967
10 0 59746 82800.000000 0      4502046.150      5149546.124     -1754719.531
10 0 59746 82980.000000 0      4853967.831      5110540.617      -434474.330
10 0 59746 83160.000000 0      5025461.634      4878442.536       901715.973
10 0 59746 83340.000000 0      5005399.723      4466604.585      2204815.875
10 0 59746 83520.000000 0      4790143.400      3895184.082      3427040.165
10 0 59746 83700.000000 0      4383822.014      3190174.056      4523654.186
10 0 59746 83880.000000 0      3798278.473      2382207.603      5454629.813
10 0 59746 84060.000000 0      3052694.154      1505205.014      6186096.786
10 0 59746 84240.000000 0      2172914.433       594930.993      6691534.626
10 0 59746 84420.000000 0      1190519.963      -312468.168      6952677.220
10 0 59746 84600.000000 0       141678.173     -1181888.204      6960126.213
10 0 59746 84780.000000 0      -934188.795     -1980612.309      6713659.100
10 0 59746 84960.000000 0     -1995873.701     -2679530.063      6222225.253
10 0 59746 85140.000000 0     -3001940.626     -3254190.011      5503640.337
10 0 59746 85320.000000 0     -3912334.169     -3685663.710      4583991.195
10 0 59746 85500.000000 0     -4689989.023     -3961187.916      3496735.215
10 0 59746 85680.000000 0     -5302361.206     -4074554.070      2281519.889
10 0 59746 85860.000000 0     -5722822.097     -4026231.478       982757.422
10 0 59746 86040.000000 0     -5931844.907     -3823209.543      -352008.656
10 0 59746 86220.000000 0     -5917916.618     -3478560.778     -1673877.964
10 0 59747     0.000000 0     -5678120.967     -3010743.592     -2934434.812
10 0 59747   180.000000 0     -5218356.658     -2442680.751     -4087564.445
10 0 59747   360.000000 0     -4553188.946     -1800668.372     -5091162.376
10 0 59747   540.000000 0     -3705347.277     -1113173.188     -5908669.827
10 0 59747   720.000000 0     -2704897.642      -409577.296     -6510378.156
10 0 59747   900.000000 0     -1588134.644       281069.173     -6874461.485
10 0 59747  1080.000000 0      -396243.362       931231.763     -6987716.840
10 0 59747  1260.000000 0       826213.939      1515972.073     -6846006.132
10 0 59747  1440.000000 0      2032943.106      2013892.005     -6454403.368
10 0 59747  1620.000000 0      3177656.889      2407916.414     -5827037.942
10 0 59747  1800.000000 0      4215846.233      2685885.752     -4986625.548
10 0 59747  1980.000000 0      5106525.271      2840939.559     -3963700.202
10 0 59747  2160.000000 0      5813889.472      2871676.152     -2795550.620
10 0 59747  2340.000000 0      6308808.661      2782077.736     -1524886.430
10 0 59747  2520.000000 0      6570084.853      2581199.797      -198270.825
10 0 59747  2700.000000 0      6585399.067      2282632.854      1135621.596
10 0 59747  2880.000000 0      6351891.350      1903762.724      2427841.531
10 0 59747  3060.000000 0      5876348.305      1464872.647      3631014.600
10 0 59747  3240.000000 0      5174980.677       988130.328      4701121.517
10 0 59747  3420.000000 0      4272809.005       496518.420      5599121.742
10 0 59747  3600.000000 0      3202702.135        12764.580      6292361.428
10 0 59747  3780.000000 0      2004116.421      -441677.041      6755717.452
10 0 59747  3960.000000 0       721606.029      -847546.716      6972453.725
10 0 59747  4140.000000 0      -596845.902     -1188574.044      6934780.996
10 0 59747  4320.000000 0     -1901615.030     -1452117.497      6644105.207
10 0 59747  4500.000000 0     -3143280.987     -1629627.064      6110969.948
10 0 59747  4680.000000 0     -4274480.448     -1716916.555      5354705.388
99
